{
  "type": "FeatureCollection",
  "features": [
    {
      "type": "Feature",
      "properties": {
        "norad_id": 31005,
        "name": "FENGYUN 1C DEB",
        "group": "fengyun-1c-debris",
        "lat": -12.645650857732644,
        "lon": -53.59989773694803,
        "alt_km": 998.2316133076602,
        "timestamp": "2025-12-21T07:34:34.796457+00:00",
        "meta_object_name": "FENGYUN 1C DEB",
        "meta_object_id": "1999-025BCX",
        "meta_epoch": "2025-12-19T20:39:31.442112",
        "meta_mean_motion": 13.83298695,
        "meta_eccentricity": 0.0180827,
        "meta_inclination": 98.6131,
        "meta_ra_of_asc_node": 127.0159,
        "meta_arg_of_pericenter": 305.9328,
        "meta_mean_anomaly": 207.4359,
        "meta_ephemeris_type": 0,
        "meta_classification_type": "U",
        "meta_norad_cat_id": 31005,
        "meta_element_set_no": 999,
        "meta_rev_at_epoch": 94379,
        "meta_bstar": 0.00095824,
        "meta_mean_motion_dot": 1.153e-05,
        "meta_mean_motion_ddot": 0,
        "tle_line1": "1 31005U 99025BCX 25353.86078058  .00001153  00000+0  95824-3 0  9994",
        "tle_line2": "2 31005  98.6131 127.0159 0180827 305.9328 207.4359 13.83298695943796"
      },
      "geometry": {
        "type": "Point",
        "coordinates": [
          -53.59989773694803,
          -12.645650857732644
        ]
      }
    },
    {
      "type": "Feature",
      "properties": {
        "norad_id": 31007,
        "name": "FENGYUN 1C DEB",
        "group": "fengyun-1c-debris",
        "lat": 65.9987965830426,
        "lon": -31.729586524330465,
        "alt_km": 663.7635394298331,
        "timestamp": "2025-12-21T07:34:34.796466+00:00",
        "meta_object_name": "FENGYUN 1C DEB",
        "meta_object_id": "1999-025BCZ",
        "meta_epoch": "2025-12-20T04:56:01.743072",
        "meta_mean_motion": 14.58784979,
        "meta_eccentricity": 0.0066874,
        "meta_inclination": 98.0867,
        "meta_ra_of_asc_node": 345.8115,
        "meta_arg_of_pericenter": 15.0833,
        "meta_mean_anomaly": 345.234,
        "meta_ephemeris_type": 0,
        "meta_classification_type": "U",
        "meta_norad_cat_id": 31007,
        "meta_element_set_no": 999,
        "meta_rev_at_epoch": 98203,
        "meta_bstar": 0.0014644,
        "meta_mean_motion_dot": 7.016e-05,
        "meta_mean_motion_ddot": 0,
        "tle_line1": "1 31007U 99025BCZ 25354.20557573  .00007016  00000+0  14644-2 0  9993",
        "tle_line2": "2 31007  98.0867 345.8115 0066874  15.0833 345.2340 14.58784979982034"
      },
      "geometry": {
        "type": "Point",
        "coordinates": [
          -31.729586524330465,
          65.9987965830426
        ]
      }
    },
    {
      "type": "Feature",
      "properties": {
        "norad_id": 31009,
        "name": "FENGYUN 1C DEB",
        "group": "fengyun-1c-debris",
        "lat": -21.989052720408033,
        "lon": -5.465638911867039,
        "alt_km": 919.6227546234659,
        "timestamp": "2025-12-21T07:34:34.796474+00:00",
        "meta_object_name": "FENGYUN 1C DEB",
        "meta_object_id": "1999-025BDB",
        "meta_epoch": "2025-12-19T23:23:03.642144",
        "meta_mean_motion": 14.00366441,
        "meta_eccentricity": 0.0053012,
        "meta_inclination": 98.8966,
        "meta_ra_of_asc_node": 349.603,
        "meta_arg_of_pericenter": 216.8042,
        "meta_mean_anomaly": 202.1683,
        "meta_ephemeris_type": 0,
        "meta_classification_type": "U",
        "meta_norad_cat_id": 31009,
        "meta_element_set_no": 999,
        "meta_rev_at_epoch": 95962,
        "meta_bstar": 3.4041e-05,
        "meta_mean_motion_dot": 8e-08,
        "meta_mean_motion_ddot": 0,
        "tle_line1": "1 31009U 99025BDB 25353.97434771  .00000008  00000+0  34041-4 0  9991",
        "tle_line2": "2 31009  98.8966 349.6030 0053012 216.8042 202.1683 14.00366441959622"
      },
      "geometry": {
        "type": "Point",
        "coordinates": [
          -5.465638911867039,
          -21.989052720408033
        ]
      }
    },
    {
      "type": "Feature",
      "properties": {
        "norad_id": 31010,
        "name": "FENGYUN 1C DEB",
        "group": "fengyun-1c-debris",
        "lat": 68.0636601388938,
        "lon": -3.7806500096282654,
        "alt_km": 857.4196929682521,
        "timestamp": "2025-12-21T07:34:34.796483+00:00",
        "meta_object_name": "FENGYUN 1C DEB",
        "meta_object_id": "1999-025BDC",
        "meta_epoch": "2025-12-19T16:20:19.384224",
        "meta_mean_motion": 14.25902279,
        "meta_eccentricity": 0.0113429,
        "meta_inclination": 101.7247,
        "meta_ra_of_asc_node": 142.9973,
        "meta_arg_of_pericenter": 336.2783,
        "meta_mean_anomaly": 23.3181,
        "meta_ephemeris_type": 0,
        "meta_classification_type": "U",
        "meta_norad_cat_id": 31010,
        "meta_element_set_no": 999,
        "meta_rev_at_epoch": 95728,
        "meta_bstar": 0.0021794226,
        "meta_mean_motion_dot": 5.489e-05,
        "meta_mean_motion_ddot": 0,
        "tle_line1": "1 31010U 99025BDC 25353.68077991  .00005489  00000+0  21794-2 0  9995",
        "tle_line2": "2 31010 101.7247 142.9973 0113429 336.2783  23.3181 14.25902279957286"
      },
      "geometry": {
        "type": "Point",
        "coordinates": [
          -3.7806500096282654,
          68.0636601388938
        ]
      }
    },
    {
      "type": "Feature",
      "properties": {
        "norad_id": 31012,
        "name": "FENGYUN 1C DEB",
        "group": "fengyun-1c-debris",
        "lat": -81.06913532584667,
        "lon": -19.616232737086094,
        "alt_km": 764.0598924488095,
        "timestamp": "2025-12-21T07:34:34.796492+00:00",
        "meta_object_name": "FENGYUN 1C DEB",
        "meta_object_id": "1999-025BDE",
        "meta_epoch": "2025-12-20T05:41:42.187776",
        "meta_mean_motion": 14.27869509,
        "meta_eccentricity": 0.0081451,
        "meta_inclination": 98.9115,
        "meta_ra_of_asc_node": 252.4881,
        "meta_arg_of_pericenter": 229.3893,
        "meta_mean_anomaly": 260.3237,
        "meta_ephemeris_type": 0,
        "meta_classification_type": "U",
        "meta_norad_cat_id": 31012,
        "meta_element_set_no": 999,
        "meta_rev_at_epoch": 97854,
        "meta_bstar": 0.00013145,
        "meta_mean_motion_dot": 2.9e-06,
        "meta_mean_motion_ddot": 0,
        "tle_line1": "1 31012U 99025BDE 25354.23729384  .00000290  00000+0  13145-3 0  9996",
        "tle_line2": "2 31012  98.9115 252.4881 0081451 229.3893 260.3237 14.27869509978544"
      },
      "geometry": {
        "type": "Point",
        "coordinates": [
          -19.616232737086094,
          -81.06913532584667
        ]
      }
    },
    {
      "type": "Feature",
      "properties": {
        "norad_id": 31014,
        "name": "FENGYUN 1C DEB",
        "group": "fengyun-1c-debris",
        "lat": -18.970198175054154,
        "lon": -26.27996164978187,
        "alt_km": 967.4633517097318,
        "timestamp": "2025-12-21T07:34:34.796501+00:00",
        "meta_object_name": "FENGYUN 1C DEB",
        "meta_object_id": "1999-025BDG",
        "meta_epoch": "2025-12-20T21:38:12.059808",
        "meta_mean_motion": 13.98493621,
        "meta_eccentricity": 0.00882528,
        "meta_inclination": 98.8692,
        "meta_ra_of_asc_node": 330.2428,
        "meta_arg_of_pericenter": 170.9163,
        "meta_mean_anomaly": 245.8964,
        "meta_ephemeris_type": 0,
        "meta_classification_type": "U",
        "meta_norad_cat_id": 31014,
        "meta_element_set_no": 999,
        "meta_rev_at_epoch": 95950,
        "meta_bstar": -5.4639437e-05,
        "meta_mean_motion_dot": -1.23e-06,
        "meta_mean_motion_ddot": 0,
        "tle_line1": "1 31014U 99025BDG 25354.90152847 -.00000123  00000+0 -54639-4 0  9997",
        "tle_line2": "2 31014  98.8692 330.2428 0088252 170.9163 245.8964 13.98493621959509"
      },
      "geometry": {
        "type": "Point",
        "coordinates": [
          -26.27996164978187,
          -18.970198175054154
        ]
      }
    },
    {
      "type": "Feature",
      "properties": {
        "norad_id": 31016,
        "name": "FENGYUN 1C DEB",
        "group": "fengyun-1c-debris",
        "lat": 2.033595358596453,
        "lon": 10.584269489095552,
        "alt_km": 824.0033495475182,
        "timestamp": "2025-12-21T07:34:34.796510+00:00",
        "meta_object_name": "FENGYUN 1C DEB",
        "meta_object_id": "1999-025BDJ",
        "meta_epoch": "2025-12-19T00:18:24.276672",
        "meta_mean_motion": 14.30504416,
        "meta_eccentricity": 0.01120117,
        "meta_inclination": 98.4358,
        "meta_ra_of_asc_node": 8.6522,
        "meta_arg_of_pericenter": 255.4442,
        "meta_mean_anomaly": 132.8317,
        "meta_ephemeris_type": 0,
        "meta_classification_type": "U",
        "meta_norad_cat_id": 31016,
        "meta_element_set_no": 999,
        "meta_rev_at_epoch": 97560,
        "meta_bstar": 0.00022139429,
        "meta_mean_motion_dot": 5.73e-06,
        "meta_mean_motion_ddot": 0,
        "tle_line1": "1 31016U 99025BDJ 25353.01278098  .00000573  00000+0  22139-3 0  9993",
        "tle_line2": "2 31016  98.4358   8.6522 0112011 255.4442 132.8317 14.30504416975605"
      },
      "geometry": {
        "type": "Point",
        "coordinates": [
          10.584269489095552,
          2.033595358596453
        ]
      }
    }
  ]
}